[
 {
  "place_name": "碧山街",
  "town": "內湖區"
 },
 {
  "place_name": "研究院路",
  "town": "文山區"
 },
 {
  "place_name": "國道3號",
  "town": "文山區"
 },
 {
  "place_name": "景美溪堤外便道",
  "town": "文山區"
 },
 {
  "place_name": "小坪頂路",
  "town": "北投區"
 },
 {
  "place_name": "至遠一路",
  "town": "北投區"
 },
 {
  "place_name": "復興路",
  "town": "北投區"
 },
 {
  "place_name": "新園街",
  "town": "北投區"
 },
 {
  "place_name": "松山路",
  "town": "松山區"
 },
 {
  "place_name": "南港路",
  "town": "松山區"
 },
 {
  "place_name": "堤頂大道",
  "town": "松山區"
 },
 {
  "place_name": "洲美快速道路",
  "town": "北投區"
 },
 {
  "place_name": "民權路",
  "town": "北投區"
 },
 {
  "place_name": "木柵路",
  "town": "信義區"
 },
 {
  "place_name": "玉成街",
  "town": "信義區"
 },
 {
  "place_name": "國道3號",
  "town": "信義區"
 },
 {
  "place_name": "堤頂大道",
  "town": "信義區"
 },
 {
  "place_name": "力行街",
  "town": "南港區"
 },
 {
  "place_name": "松山路",
  "town": "南港區"
 },
 {
  "place_name": "芳園街",
  "town": "南港區"
 },
 {
  "place_name": "國道3號",
  "town": "南港區"
 },
 {
  "place_name": "國道5號",
  "town": "南港區"
 },
 {
  "place_name": "內湖路",
  "town": "士林區"
 },
 {
  "place_name": "康寧路",
  "town": "南港區"
 },
 {
  "place_name": "國泰街",
  "town": "士林區"
 },
 {
  "place_name": "福榮街",
  "town": "士林區"
 },
 {
  "place_name": "福德路",
  "town": "士林區"
 },
 {
  "place_name": "翠山街",
  "town": "士林區"
 },
 {
  "place_name": "劍南路",
  "town": "士林區"
 },
 {
  "place_name": "劍潭路",
  "town": "士林區"
 },
 {
  "place_name": "德行西路",
  "town": "士林區"
 },
 {
  "place_name": "德行東路",
  "town": "士林區"
 },
 {
  "place_name": "樂生巷",
  "town": "士林區"
 },
 {
  "place_name": "環河快速道路",
  "town": "士林區"
 },
 {
  "place_name": "磺溪街",
  "town": "士林區"
 },
 {
  "place_name": "臨溪路",
  "town": "士林區"
 },
 {
  "place_name": "雙溪產業道路",
  "town": "士林區"
 },
 {
  "place_name": "寶橋路",
  "town": "文山區"
 },
 {
  "place_name": "環山二道",
  "town": "文山區"
 },
 {
  "place_name": "環山三道",
  "town": "文山區"
 },
 {
  "place_name": "環東大道",
  "town": "松山區"
 },
 {
  "place_name": "環河北路",
  "town": "萬華區"
 },
 {
  "place_name": "鄭州路",
  "town": "中正區"
 },
 {
  "place_name": "機車道",
  "town": "文山區"
 },
 {
  "place_name": "福華路",
  "town": "北投區"
 },
 {
  "place_name": "碧山路",
  "town": "士林區"
 },
 {
  "place_name": "溪洲街",
  "town": "文山區"
 },
 {
  "place_name": "萬芳交流道",
  "town": "文山區"
 },
 {
  "place_name": "新店溪與淡水河腳踏車",
  "town": "萬華區"
 },
 {
  "place_name": "新富街",
  "town": "內湖區"
 },
 {
  "place_name": "新豐街",
  "town": "內湖區"
 },
 {
  "place_name": "圓環",
  "town": "信義區"
 },
 {
  "place_name": "塔城街",
  "town": "中正區"
 },
 {
  "place_name": "敬熙路",
  "town": "士林區"
 },
 {
  "place_name": "新生北路高架道路",
  "town": "中山區"
 },
 {
  "place_name": "新生高架道路匝道",
  "town": "中正區"
 },
 {
  "place_name": "新生街",
  "town": "北投區"
 },
 {
  "place_name": "圓環",
  "town": "士林區"
 },
 {
  "place_name": "圓環",
  "town": "中山區"
 },
 {
  "place_name": "圓環",
  "town": "中正區"
 },
 {
  "place_name": "圓環",
  "town": "文山區"
 },
 {
  "place_name": "圓環",
  "town": "文山區"
 },
 {
  "place_name": "圓環",
  "town": "萬華區"
 },
 {
  "place_name": "港東街",
  "town": "南港區"
 },
 {
  "place_name": "華江大橋匝道",
  "town": "萬華區"
 },
 {
  "place_name": "喬治工商校區內道路",
  "town": "信義區"
 },
 {
  "place_name": "堤外便道",
  "town": "中正區"
 },
 {
  "place_name": "堤外便道",
  "town": "文山區"
 },
 {
  "place_name": "復北地下道",
  "town": "松山區"
 },
 {
  "place_name": "區塊道路",
  "town": "士林區"
 },
 {
  "place_name": "區塊道路",
  "town": "北投區"
 },
 {
  "place_name": "基隆路車",
  "town": "信義區"
 },
 {
  "place_name": "基隆路高架道路匝道",
  "town": "大安區"
 },
 {
  "place_name": "基隆路高架道路匝道",
  "town": "文山區"
 },
 {
  "place_name": "重陽大橋匝道",
  "town": "士林區"
 },
 {
  "place_name": "重新路",
  "town": "大同區"
 },
 {
  "place_name": "峨眉街",
  "town": "萬華區"
 },
 {
  "place_name": "南港聯絡道",
  "town": "南港區"
 },
 {
  "place_name": "南勢街",
  "town": "南港區"
 },
 {
  "place_name": "政大校區內道路",
  "town": "文山區"
 },
 {
  "place_name": "金莊路",
  "town": "內湖區"
 },
 {
  "place_name": "松信路",
  "town": "松山區"
 },
 {
  "place_name": "東勢街",
  "town": "南港區"
 },
 {
  "place_name": "忠孝大鵬提外便道",
  "town": "文山區"
 },
 {
  "place_name": "車行地下道",
  "town": "大安區"
 },
 {
  "place_name": "車行地下道",
  "town": "中正區"
 },
 {
  "place_name": "自強路",
  "town": "北投區"
 },
 {
  "place_name": "老子大道",
  "town": "士林區"
 },
 {
  "place_name": "自行車專用道",
  "town": "中正區"
 },
 {
  "place_name": "立賢路",
  "town": "北投區"
 },
 {
  "place_name": "永保街",
  "town": "內湖區"
 },
 {
  "place_name": "玉山路",
  "town": "文山區"
 },
 {
  "place_name": "民族東路",
  "town": "內湖區"
 },
 {
  "place_name": "台大校區內道路",
  "town": "大安區"
 },
 {
  "place_name": "市民高架道路",
  "town": "大安區"
 },
 {
  "place_name": "市民高架道路",
  "town": "中山區"
 },
 {
  "place_name": "市民高架道路",
  "town": "中正區"
 },
 {
  "place_name": "市民高架道路",
  "town": "松山區"
 },
 {
  "place_name": "市民高架道路匝道",
  "town": "大安區"
 },
 {
  "place_name": "市民高架道路匝道",
  "town": "中正區"
 },
 {
  "place_name": "市民高架道路匝道",
  "town": "信義區"
 },
 {
  "place_name": "巴拉卡公路",
  "town": "北投區"
 },
 {
  "place_name": "仁愛敦南圓環",
  "town": "大安區"
 },
 {
  "place_name": "中興大橋機車道",
  "town": "萬華區"
 },
 {
  "place_name": "中山路",
  "town": "士林區"
 },
 {
  "place_name": "中坡北路",
  "town": "松山區"
 },
 {
  "place_name": "大亨路",
  "town": "士林區"
 },
 {
  "place_name": "三民圓",
  "town": "松山區"
 },
 {
  "place_name": "力行路",
  "town": "北投區"
 },
 {
  "place_name": "大享路",
  "town": "士林區"
 },
 {
  "place_name": "農業道路",
  "town": "北投區"
 },
 {
  "place_name": "峨嵋街",
  "town": "萬華區"
 },
 {
  "place_name": "環河快速道路",
  "town": "萬華區"
 },
 {
  "place_name": "水源快速道路",
  "town": "文山區"
 },
 {
  "place_name": "北二高台北聯絡道",
  "town": "文山區"
 },
 {
  "place_name": "信義快速道路",
  "town": "文山區"
 },
 {
  "place_name": "深坑端",
  "town": "文山區"
 },
 {
  "place_name": "溪州街",
  "town": "文山區"
 },
 {
  "place_name": "二高南港聯絡道",
  "town": "南港區"
 },
 {
  "place_name": "信義快速道路",
  "town": "南港區"
 },
 {
  "place_name": "福音大道",
  "town": "南港區"
 },
 {
  "place_name": "蔣渭水高速公路",
  "town": "南港區"
 },
 {
  "place_name": "中山高汐五高架道路",
  "town": "內湖區"
 },
 {
  "place_name": "中山高速公路",
  "town": "內湖區"
 },
 {
  "place_name": "中山高汐五高架道路",
  "town": "士林區"
 },
 {
  "place_name": "中山高速公路",
  "town": "士林區"
 },
 {
  "place_name": "洲美快速道路",
  "town": "士林區"
 },
 {
  "place_name": "新生高架道路",
  "town": "士林區"
 },
 {
  "place_name": "中湖戰備道路",
  "town": "北投區"
 },
 {
  "place_name": "中山高汐五高架道路",
  "town": "松山區"
 },
 {
  "place_name": "中山高速公路",
  "town": "松山區"
 },
 {
  "place_name": "市民大道高架道路",
  "town": "松山區"
 },
 {
  "place_name": "北二高台北聯絡道",
  "town": "信義區"
 },
 {
  "place_name": "市民大道高架道路",
  "town": "信義區"
 },
 {
  "place_name": "信義快速道路",
  "town": "信義區"
 },
 {
  "place_name": "北二高台北聯絡道",
  "town": "大安區"
 },
 {
  "place_name": "市民大道高架道路",
  "town": "大安區"
 },
 {
  "place_name": "中山高汐五高架道路",
  "town": "中山區"
 },
 {
  "place_name": "中山高速公路",
  "town": "中山區"
 },
 {
  "place_name": "天母快速道路",
  "town": "中山區"
 },
 {
  "place_name": "市民大道高架道路",
  "town": "中山區"
 },
 {
  "place_name": "通化街",
  "town": "中山區"
 },
 {
  "place_name": "西寧南路",
  "town": "中正區"
 },
 {
  "place_name": "長安東路",
  "town": "中正區"
 },
 {
  "place_name": "中山高汐五高架道路",
  "town": "大同區"
 },
 {
  "place_name": "中山高速公路",
  "town": "大同區"
 },
 {
  "place_name": "雙溪街",
  "town": "士林區"
 },
 {
  "place_name": "杏林巷",
  "town": "北投區"
 },
 {
  "place_name": "秀山路",
  "town": "北投區"
 },
 {
  "place_name": "育仁路",
  "town": "北投區"
 },
 {
  "place_name": "奇岩路",
  "town": "北投區"
 },
 {
  "place_name": "奉賢路",
  "town": "北投區"
 },
 {
  "place_name": "宜山路",
  "town": "北投區"
 },
 {
  "place_name": "怡和巷",
  "town": "北投區"
 },
 {
  "place_name": "洲美街",
  "town": "北投區"
 },
 {
  "place_name": "致遠一路",
  "town": "北投區"
 },
 {
  "place_name": "致遠二路",
  "town": "北投區"
 },
 {
  "place_name": "致遠三路",
  "town": "北投區"
 },
 {
  "place_name": "致遠路",
  "town": "北投區"
 },
 {
  "place_name": "重三路",
  "town": "北投區"
 },
 {
  "place_name": "振華街",
  "town": "北投區"
 },
 {
  "place_name": "振興街",
  "town": "北投區"
 },
 {
  "place_name": "珠海路",
  "town": "北投區"
 },
 {
  "place_name": "紗帽路",
  "town": "北投區"
 },
 {
  "place_name": "崇仁路",
  "town": "北投區"
 },
 {
  "place_name": "崇仰一路",
  "town": "北投區"
 },
 {
  "place_name": "崇仰七路",
  "town": "北投區"
 },
 {
  "place_name": "崇仰九路",
  "town": "北投區"
 },
 {
  "place_name": "崇仰二路",
  "town": "北投區"
 },
 {
  "place_name": "崇仰三路",
  "town": "北投區"
 },
 {
  "place_name": "崇仰五路",
  "town": "北投區"
 },
 {
  "place_name": "崇仰六路",
  "town": "北投區"
 },
 {
  "place_name": "崇仰路",
  "town": "北投區"
 },
 {
  "place_name": "崗山路",
  "town": "北投區"
 },
 {
  "place_name": "清江路",
  "town": "北投區"
 },
 {
  "place_name": "勝利街",
  "town": "北投區"
 },
 {
  "place_name": "堤防路",
  "town": "北投區"
 },
 {
  "place_name": "富貴一路",
  "town": "北投區"
 },
 {
  "place_name": "尊賢街",
  "town": "北投區"
 },
 {
  "place_name": "復興一路",
  "town": "北投區"
 },
 {
  "place_name": "復興二路",
  "town": "北投區"
 },
 {
  "place_name": "復興三路",
  "town": "北投區"
 },
 {
  "place_name": "復興四路",
  "town": "北投區"
 },
 {
  "place_name": "湖山路",
  "town": "北投區"
 },
 {
  "place_name": "湖底路",
  "town": "北投區"
 },
 {
  "place_name": "猴洞產業道路",
  "town": "北投區"
 },
 {
  "place_name": "登山路",
  "town": "北投區"
 },
 {
  "place_name": "菁山路",
  "town": "北投區"
 },
 {
  "place_name": "華南巷",
  "town": "北投區"
 },
 {
  "place_name": "進賢路",
  "town": "北投區"
 },
 {
  "place_name": "開明街",
  "town": "北投區"
 },
 {
  "place_name": "陽明路",
  "town": "北投區"
 },
 {
  "place_name": "陽金公路",
  "town": "北投區"
 },
 {
  "place_name": "陽關大道",
  "town": "北投區"
 },
 {
  "place_name": "新市街",
  "town": "北投區"
 },
 {
  "place_name": "新民路",
  "town": "北投區"
 },
 {
  "place_name": "新生巷",
  "town": "北投區"
 },
 {
  "place_name": "新園路",
  "town": "北投區"
 },
 {
  "place_name": "新興路",
  "town": "北投區"
 },
 {
  "place_name": "溫泉路",
  "town": "北投區"
 },
 {
  "place_name": "義方街",
  "town": "北投區"
 },
 {
  "place_name": "義理街",
  "town": "北投區"
 },
 {
  "place_name": "聖景路",
  "town": "北投區"
 },
 {
  "place_name": "裕民一路",
  "town": "北投區"
 },
 {
  "place_name": "裕民二路",
  "town": "北投區"
 },
 {
  "place_name": "裕民三路",
  "town": "北投區"
 },
 {
  "place_name": "裕民六路",
  "town": "北投區"
 },
 {
  "place_name": "裕民四路",
  "town": "北投區"
 },
 {
  "place_name": "農業道路",
  "town": "北投區"
 },
 {
  "place_name": "實踐街",
  "town": "北投區"
 },
 {
  "place_name": "榮華一路",
  "town": "北投區"
 },
 {
  "place_name": "榮華二路",
  "town": "北投區"
 },
 {
  "place_name": "翠宜路",
  "town": "北投區"
 },
 {
  "place_name": "翠華街",
  "town": "北投區"
 },
 {
  "place_name": "翠雲街",
  "town": "北投區"
 },
 {
  "place_name": "翠嶺路",
  "town": "北投區"
 },
 {
  "place_name": "銀光巷",
  "town": "北投區"
 },
 {
  "place_name": "稻香路",
  "town": "北投區"
 },
 {
  "place_name": "學園路",
  "town": "北投區"
 },
 {
  "place_name": "樹林路",
  "town": "北投區"
 },
 {
  "place_name": "錫安巷",
  "town": "北投區"
 },
 {
  "place_name": "環山路",
  "town": "北投區"
 },
 {
  "place_name": "磺田路",
  "town": "北投區"
 },
 {
  "place_name": "磺港路",
  "town": "北投區"
 },
 {
  "place_name": "隱潭路",
  "town": "北投區"
 },
 {
  "place_name": "豐年路",
  "town": "北投區"
 },
 {
  "place_name": "雙全街",
  "town": "北投區"
 },
 {
  "place_name": "懷德街",
  "town": "北投區"
 },
 {
  "place_name": "關渡路",
  "town": "北投區"
 },
 {
  "place_name": "福林路",
  "town": "士林區"
 },
 {
  "place_name": "福國路",
  "town": "士林區"
 },
 {
  "place_name": "福港街",
  "town": "士林區"
 },
 {
  "place_name": "福華路",
  "town": "士林區"
 },
 {
  "place_name": "福壽街",
  "town": "士林區"
 },
 {
  "place_name": "攤姆東路",
  "town": "士林區"
 },
 {
  "place_name": "一心街",
  "town": "北投區"
 },
 {
  "place_name": "一德街",
  "town": "北投區"
 },
 {
  "place_name": "八仙產業道路",
  "town": "北投區"
 },
 {
  "place_name": "十八分產業道路",
  "town": "北投區"
 },
 {
  "place_name": "三合街",
  "town": "北投區"
 },
 {
  "place_name": "大屯產業道路",
  "town": "北投區"
 },
 {
  "place_name": "大屯路",
  "town": "北投區"
 },
 {
  "place_name": "大同街",
  "town": "北投區"
 },
 {
  "place_name": "大度路",
  "town": "北投區"
 },
 {
  "place_name": "大埔產業道路",
  "town": "北投區"
 },
 {
  "place_name": "大業路",
  "town": "北投區"
 },
 {
  "place_name": "大興街",
  "town": "北投區"
 },
 {
  "place_name": "中山北路",
  "town": "北投區"
 },
 {
  "place_name": "中山路",
  "town": "北投區"
 },
 {
  "place_name": "中心街",
  "town": "北投區"
 },
 {
  "place_name": "中央北路",
  "town": "北投區"
 },
 {
  "place_name": "中央南路",
  "town": "北投區"
 },
 {
  "place_name": "中正東路",
  "town": "北投區"
 },
 {
  "place_name": "中正產業道路",
  "town": "北投區"
 },
 {
  "place_name": "中正街",
  "town": "北投區"
 },
 {
  "place_name": "中和街",
  "town": "北投區"
 },
 {
  "place_name": "中湖戰備道路",
  "town": "北投區"
 },
 {
  "place_name": "中華街",
  "town": "北投區"
 },
 {
  "place_name": "中興路",
  "town": "北投區"
 },
 {
  "place_name": "五分產業道路",
  "town": "北投區"
 },
 {
  "place_name": "公館路",
  "town": "北投區"
 },
 {
  "place_name": "天母北路",
  "town": "北投區"
 },
 {
  "place_name": "天母西路",
  "town": "北投區"
 },
 {
  "place_name": "巴拉卡公路",
  "town": "北投區"
 },
 {
  "place_name": "文化一路",
  "town": "北投區"
 },
 {
  "place_name": "文化二路",
  "town": "北投區"
 },
 {
  "place_name": "文化三路",
  "town": "北投區"
 },
 {
  "place_name": "文化五路",
  "town": "北投區"
 },
 {
  "place_name": "文林北路",
  "town": "北投區"
 },
 {
  "place_name": "水二溪路",
  "town": "北投區"
 },
 {
  "place_name": "北投路",
  "town": "北投區"
 },
 {
  "place_name": "民族街",
  "town": "北投區"
 },
 {
  "place_name": "民權街",
  "town": "北投區"
 },
 {
  "place_name": "永興路",
  "town": "北投區"
 },
 {
  "place_name": "石子路",
  "town": "北投區"
 },
 {
  "place_name": "石仙路",
  "town": "北投區"
 },
 {
  "place_name": "石牌路",
  "town": "北投區"
 },
 {
  "place_name": "石壇路",
  "town": "北投區"
 },
 {
  "place_name": "立功街",
  "town": "北投區"
 },
 {
  "place_name": "立功路",
  "town": "北投區"
 },
 {
  "place_name": "立農街",
  "town": "北投區"
 },
 {
  "place_name": "立德街",
  "town": "北投區"
 },
 {
  "place_name": "立德路",
  "town": "北投區"
 },
 {
  "place_name": "光明路",
  "town": "北投區"
 },
 {
  "place_name": "光武路",
  "town": "北投區"
 },
 {
  "place_name": "光復路",
  "town": "北投區"
 },
 {
  "place_name": "吉利街",
  "town": "北投區"
 },
 {
  "place_name": "同德街",
  "town": "北投區"
 },
 {
  "place_name": "百拉卡公路",
  "town": "北投區"
 },
 {
  "place_name": "百齡五路",
  "town": "北投區"
 },
 {
  "place_name": "百齡四路",
  "town": "北投區"
 },
 {
  "place_name": "竹子湖路",
  "town": "北投區"
 },
 {
  "place_name": "自立路",
  "town": "北投區"
 },
 {
  "place_name": "自強街",
  "town": "北投區"
 },
 {
  "place_name": "行義路",
  "town": "北投區"
 },
 {
  "place_name": "西安街",
  "town": "北投區"
 },
 {
  "place_name": "西園街",
  "town": "北投區"
 },
 {
  "place_name": "杏林一路",
  "town": "北投區"
 },
 {
  "place_name": "杏林二路",
  "town": "北投區"
 },
 {
  "place_name": "杏林三路",
  "town": "北投區"
 },
 {
  "place_name": "承德路",
  "town": "北投區"
 },
 {
  "place_name": "明德路",
  "town": "北投區"
 },
 {
  "place_name": "東昇路",
  "town": "北投區"
 },
 {
  "place_name": "東華街",
  "town": "北投區"
 },
 {
  "place_name": "東陽街",
  "town": "北投區"
 },
 {
  "place_name": "知行路",
  "town": "北投區"
 },
 {
  "place_name": "長春路",
  "town": "北投區"
 },
 {
  "place_name": "長壽路",
  "town": "北投區"
 },
 {
  "place_name": "青春嶺路",
  "town": "北投區"
 },
 {
  "place_name": "信德大道",
  "town": "北投區"
 },
 {
  "place_name": "幽雅路",
  "town": "北投區"
 },
 {
  "place_name": "建民路",
  "town": "北投區"
 },
 {
  "place_name": "建國街",
  "town": "北投區"
 },
 {
  "place_name": "泉源路",
  "town": "北投區"
 },
 {
  "place_name": "洲美快速道路",
  "town": "北投區"
 },
 {
  "place_name": "玉門街",
  "town": "士林區"
 },
 {
  "place_name": "仰德大道",
  "town": "士林區"
 },
 {
  "place_name": "光華路",
  "town": "士林區"
 },
 {
  "place_name": "安平街",
  "town": "士林區"
 },
 {
  "place_name": "朱子路",
  "town": "士林區"
 },
 {
  "place_name": "百齡三路",
  "town": "士林區"
 },
 {
  "place_name": "百齡路",
  "town": "士林區"
 },
 {
  "place_name": "竹子湖路",
  "town": "士林區"
 },
 {
  "place_name": "自祥街",
  "town": "士林區"
 },
 {
  "place_name": "至城路",
  "town": "士林區"
 },
 {
  "place_name": "至善路",
  "town": "士林區"
 },
 {
  "place_name": "至誠路",
  "town": "士林區"
 },
 {
  "place_name": "西安街",
  "town": "士林區"
 },
 {
  "place_name": "克強路",
  "town": "士林區"
 },
 {
  "place_name": "忠勇街",
  "town": "士林區"
 },
 {
  "place_name": "忠義街",
  "town": "士林區"
 },
 {
  "place_name": "忠義路",
  "town": "士林區"
 },
 {
  "place_name": "忠誠路",
  "town": "士林區"
 },
 {
  "place_name": "承德路",
  "town": "士林區"
 },
 {
  "place_name": "明溪街",
  "town": "士林區"
 },
 {
  "place_name": "明德路",
  "town": "士林區"
 },
 {
  "place_name": "東山路",
  "town": "士林區"
 },
 {
  "place_name": "東華街",
  "town": "士林區"
 },
 {
  "place_name": "林文路",
  "town": "士林區"
 },
 {
  "place_name": "社子一街",
  "town": "士林區"
 },
 {
  "place_name": "社子九街",
  "town": "士林區"
 },
 {
  "place_name": "社子二十四街",
  "town": "士林區"
 },
 {
  "place_name": "社子二十街",
  "town": "士林區"
 },
 {
  "place_name": "社子八街",
  "town": "士林區"
 },
 {
  "place_name": "社子十一街",
  "town": "士林區"
 },
 {
  "place_name": "社子十七街",
  "town": "士林區"
 },
 {
  "place_name": "社子十九街",
  "town": "士林區"
 },
 {
  "place_name": "社子十二街",
  "town": "士林區"
 },
 {
  "place_name": "社子十八街",
  "town": "士林區"
 },
 {
  "place_name": "社子十六街",
  "town": "士林區"
 },
 {
  "place_name": "社子十街",
  "town": "士林區"
 },
 {
  "place_name": "社子五街",
  "town": "士林區"
 },
 {
  "place_name": "社子六街",
  "town": "士林區"
 },
 {
  "place_name": "社子街",
  "town": "士林區"
 },
 {
  "place_name": "社中街",
  "town": "士林區"
 },
 {
  "place_name": "社正路",
  "town": "士林區"
 },
 {
  "place_name": "芝玉路",
  "town": "士林區"
 },
 {
  "place_name": "金龍產業道路",
  "town": "士林區"
 },
 {
  "place_name": "長生巷",
  "town": "士林區"
 },
 {
  "place_name": "長春街",
  "town": "士林區"
 },
 {
  "place_name": "長泰街",
  "town": "士林區"
 },
 {
  "place_name": "雨農路",
  "town": "士林區"
 },
 {
  "place_name": "前港街",
  "town": "士林區"
 },
 {
  "place_name": "前街",
  "town": "士林區"
 },
 {
  "place_name": "建國街",
  "town": "士林區"
 },
 {
  "place_name": "建業路",
  "town": "士林區"
 },
 {
  "place_name": "後港街",
  "town": "士林區"
 },
 {
  "place_name": "後街",
  "town": "士林區"
 },
 {
  "place_name": "故宮路",
  "town": "士林區"
 },
 {
  "place_name": "洲美快速道路",
  "town": "士林區"
 },
 {
  "place_name": "美崙街",
  "town": "士林區"
 },
 {
  "place_name": "美德街",
  "town": "士林區"
 },
 {
  "place_name": "重慶北路",
  "town": "士林區"
 },
 {
  "place_name": "倫等街",
  "town": "士林區"
 },
 {
  "place_name": "格致路",
  "town": "士林區"
 },
 {
  "place_name": "荀子大道",
  "town": "士林區"
 },
 {
  "place_name": "國華街",
  "town": "士林區"
 },
 {
  "place_name": "基河路",
  "town": "士林區"
 },
 {
  "place_name": "莊頂路",
  "town": "士林區"
 },
 {
  "place_name": "通河西街",
  "town": "士林區"
 },
 {
  "place_name": "通河東街",
  "town": "士林區"
 },
 {
  "place_name": "通河街",
  "town": "士林區"
 },
 {
  "place_name": "凱旋路",
  "town": "士林區"
 },
 {
  "place_name": "富貴街",
  "town": "士林區"
 },
 {
  "place_name": "復國街",
  "town": "士林區"
 },
 {
  "place_name": "復國路",
  "town": "士林區"
 },
 {
  "place_name": "曾子路",
  "town": "士林區"
 },
 {
  "place_name": "猴洞產業道路",
  "town": "士林區"
 },
 {
  "place_name": "菁山路",
  "town": "士林區"
 },
 {
  "place_name": "菁礐路",
  "town": "士林區"
 },
 {
  "place_name": "華光街",
  "town": "士林區"
 },
 {
  "place_name": "華岡路",
  "town": "士林區"
 },
 {
  "place_name": "華榮街",
  "town": "士林區"
 },
 {
  "place_name": "華興街",
  "town": "士林區"
 },
 {
  "place_name": "華聲街",
  "town": "士林區"
 },
 {
  "place_name": "華齡街",
  "town": "士林區"
 },
 {
  "place_name": "貴富街",
  "town": "士林區"
 },
 {
  "place_name": "陽明路",
  "town": "士林區"
 },
 {
  "place_name": "陽金公路",
  "town": "士林區"
 },
 {
  "place_name": "愛富一街",
  "town": "士林區"
 },
 {
  "place_name": "愛富二街",
  "town": "士林區"
 },
 {
  "place_name": "愛富三街",
  "town": "士林區"
 },
 {
  "place_name": "新生高架道路",
  "town": "士林區"
 },
 {
  "place_name": "新安路",
  "town": "士林區"
 },
 {
  "place_name": "新園街",
  "town": "士林區"
 },
 {
  "place_name": "新園路",
  "town": "士林區"
 },
 {
  "place_name": "萬溪左線產業道路",
  "town": "士林區"
 },
 {
  "place_name": "萬溪產業道路",
  "town": "士林區"
 },
 {
  "place_name": "葫東街",
  "town": "士林區"
 },
 {
  "place_name": "葫蘆街",
  "town": "士林區"
 },
 {
  "place_name": "榮華三路",
  "town": "士林區"
 },
 {
  "place_name": "碧溪產業道路",
  "town": "士林區"
 },
 {
  "place_name": "福志路",
  "town": "士林區"
 },
 {
  "place_name": "安泰街",
  "town": "內湖區"
 },
 {
  "place_name": "安康路",
  "town": "內湖區"
 },
 {
  "place_name": "安興街",
  "town": "內湖區"
 },
 {
  "place_name": "成功路",
  "town": "內湖區"
 },
 {
  "place_name": "江南街",
  "town": "內湖區"
 },
 {
  "place_name": "行忠路",
  "town": "內湖區"
 },
 {
  "place_name": "行善路",
  "town": "內湖區"
 },
 {
  "place_name": "行愛路",
  "town": "內湖區"
 },
 {
  "place_name": "康寧街",
  "town": "內湖區"
 },
 {
  "place_name": "康寧路",
  "town": "內湖區"
 },
 {
  "place_name": "康樂街",
  "town": "內湖區"
 },
 {
  "place_name": "堤頂大道",
  "town": "內湖區"
 },
 {
  "place_name": "港華街",
  "town": "內湖區"
 },
 {
  "place_name": "港墘路",
  "town": "內湖區"
 },
 {
  "place_name": "陽光街",
  "town": "內湖區"
 },
 {
  "place_name": "新生南路",
  "town": "內湖區"
 },
 {
  "place_name": "新明路",
  "town": "內湖區"
 },
 {
  "place_name": "新湖一路",
  "town": "內湖區"
 },
 {
  "place_name": "新湖二路",
  "town": "內湖區"
 },
 {
  "place_name": "新湖三路",
  "town": "內湖區"
 },
 {
  "place_name": "瑞光路",
  "town": "內湖區"
 },
 {
  "place_name": "瑞湖街",
  "town": "內湖區"
 },
 {
  "place_name": "碧山路",
  "town": "內湖區"
 },
 {
  "place_name": "碧溪產業道路",
  "town": "內湖區"
 },
 {
  "place_name": "劍南路",
  "town": "內湖區"
 },
 {
  "place_name": "撫遠街",
  "town": "內湖區"
 },
 {
  "place_name": "樂群三路",
  "town": "內湖區"
 },
 {
  "place_name": "潭美街",
  "town": "內湖區"
 },
 {
  "place_name": "環山路",
  "town": "內湖區"
 },
 {
  "place_name": "環東大道",
  "town": "內湖區"
 },
 {
  "place_name": "舊宗路",
  "town": "內湖區"
 },
 {
  "place_name": "麗山街",
  "town": "內湖區"
 },
 {
  "place_name": "力行街",
  "town": "士林區"
 },
 {
  "place_name": "下半嶺產業道路",
  "town": "士林區"
 },
 {
  "place_name": "下東勢產業道路",
  "town": "士林區"
 },
 {
  "place_name": "下樹林街",
  "town": "士林區"
 },
 {
  "place_name": "士東路",
  "town": "士林區"
 },
 {
  "place_name": "士商路",
  "town": "士林區"
 },
 {
  "place_name": "大北路",
  "town": "士林區"
 },
 {
  "place_name": "大光街",
  "town": "士林區"
 },
 {
  "place_name": "大西路",
  "town": "士林區"
 },
 {
  "place_name": "大享路",
  "town": "士林區"
 },
 {
  "place_name": "大東路",
  "town": "士林區"
 },
 {
  "place_name": "大南路",
  "town": "士林區"
 },
 {
  "place_name": "小北街",
  "town": "士林區"
 },
 {
  "place_name": "小西街",
  "town": "士林區"
 },
 {
  "place_name": "小西路",
  "town": "士林區"
 },
 {
  "place_name": "小東街",
  "town": "士林區"
 },
 {
  "place_name": "小南街",
  "town": "士林區"
 },
 {
  "place_name": "中七街",
  "town": "士林區"
 },
 {
  "place_name": "中二十一路",
  "town": "士林區"
 },
 {
  "place_name": "中十一街",
  "town": "士林區"
 },
 {
  "place_name": "中十七路",
  "town": "士林區"
 },
 {
  "place_name": "中十二路",
  "town": "士林區"
 },
 {
  "place_name": "中十五路",
  "town": "士林區"
 },
 {
  "place_name": "中十六路",
  "town": "士林區"
 },
 {
  "place_name": "中十四街",
  "town": "士林區"
 },
 {
  "place_name": "中山北路",
  "town": "士林區"
 },
 {
  "place_name": "中山高汐五高架道路",
  "town": "士林區"
 },
 {
  "place_name": "中山高速公路",
  "town": "士林區"
 },
 {
  "place_name": "中正路",
  "town": "士林區"
 },
 {
  "place_name": "中社路",
  "town": "士林區"
 },
 {
  "place_name": "中庸一路",
  "town": "士林區"
 },
 {
  "place_name": "中庸二路",
  "town": "士林區"
 },
 {
  "place_name": "中庸五路",
  "town": "士林區"
 },
 {
  "place_name": "中湖戰備道路",
  "town": "士林區"
 },
 {
  "place_name": "中華路",
  "town": "士林區"
 },
 {
  "place_name": "中興街",
  "town": "士林區"
 },
 {
  "place_name": "五指山產業道路",
  "town": "士林區"
 },
 {
  "place_name": "仁民路",
  "town": "士林區"
 },
 {
  "place_name": "公園內道路",
  "town": "士林區"
 },
 {
  "place_name": "天母一路",
  "town": "士林區"
 },
 {
  "place_name": "天母七路",
  "town": "士林區"
 },
 {
  "place_name": "天母二路",
  "town": "士林區"
 },
 {
  "place_name": "天母三路",
  "town": "士林區"
 },
 {
  "place_name": "天母五路",
  "town": "士林區"
 },
 {
  "place_name": "天母六路",
  "town": "士林區"
 },
 {
  "place_name": "天母北路",
  "town": "士林區"
 },
 {
  "place_name": "天母西路",
  "town": "士林區"
 },
 {
  "place_name": "天母東路",
  "town": "士林區"
 },
 {
  "place_name": "天玉街",
  "town": "士林區"
 },
 {
  "place_name": "孔子大道",
  "town": "士林區"
 },
 {
  "place_name": "文昌路",
  "town": "士林區"
 },
 {
  "place_name": "文林北路",
  "town": "士林區"
 },
 {
  "place_name": "文林路",
  "town": "士林區"
 },
 {
  "place_name": "北安路",
  "town": "士林區"
 },
 {
  "place_name": "平青街",
  "town": "士林區"
 },
 {
  "place_name": "平菁街",
  "town": "士林區"
 },
 {
  "place_name": "平菁路",
  "town": "士林區"
 },
 {
  "place_name": "平溪產業道路",
  "town": "士林區"
 },
 {
  "place_name": "永公路",
  "town": "士林區"
 },
 {
  "place_name": "永平街",
  "town": "士林區"
 },
 {
  "place_name": "志成街",
  "town": "士林區"
 },
 {
  "place_name": "求志路",
  "town": "士林區"
 },
 {
  "place_name": "秀山街",
  "town": "士林區"
 },
 {
  "place_name": "防汛道路",
  "town": "士林區"
 },
 {
  "place_name": "和平街",
  "town": "士林區"
 },
 {
  "place_name": "和豐街",
  "town": "士林區"
 },
 {
  "place_name": "幸福街",
  "town": "士林區"
 },
 {
  "place_name": "延平北路",
  "town": "士林區"
 },
 {
  "place_name": "景文街",
  "town": "文山區"
 },
 {
  "place_name": "景平路",
  "town": "文山區"
 },
 {
  "place_name": "萬壽路",
  "town": "文山區"
 },
 {
  "place_name": "萬寧街",
  "town": "文山區"
 },
 {
  "place_name": "萬慶街",
  "town": "文山區"
 },
 {
  "place_name": "萬樂街",
  "town": "文山區"
 },
 {
  "place_name": "試院路",
  "town": "文山區"
 },
 {
  "place_name": "福爾摩莎高速公路",
  "town": "文山區"
 },
 {
  "place_name": "福爾摩莎高速公路台北聯絡道",
  "town": "文山區"
 },
 {
  "place_name": "福興路",
  "town": "文山區"
 },
 {
  "place_name": "樟新街",
  "town": "文山區"
 },
 {
  "place_name": "興隆路",
  "town": "文山區"
 },
 {
  "place_name": "興順街",
  "town": "文山區"
 },
 {
  "place_name": "興德路",
  "town": "文山區"
 },
 {
  "place_name": "羅斯福路",
  "town": "文山區"
 },
 {
  "place_name": "寶高路",
  "town": "文山區"
 },
 {
  "place_name": "寶儀路",
  "town": "文山區"
 },
 {
  "place_name": "二高南港聯絡道",
  "town": "南港區"
 },
 {
  "place_name": "八德路",
  "town": "南港區"
 },
 {
  "place_name": "三重路",
  "town": "南港區"
 },
 {
  "place_name": "中坡北路",
  "town": "南港區"
 },
 {
  "place_name": "中坡南路",
  "town": "南港區"
 },
 {
  "place_name": "中南街",
  "town": "南港區"
 },
 {
  "place_name": "北宜高速公路",
  "town": "南港區"
 },
 {
  "place_name": "弘道街",
  "town": "南港區"
 },
 {
  "place_name": "民權街",
  "town": "南港區"
 },
 {
  "place_name": "永吉路",
  "town": "南港區"
 },
 {
  "place_name": "玉成街",
  "town": "南港區"
 },
 {
  "place_name": "合順街",
  "town": "南港區"
 },
 {
  "place_name": "同德路",
  "town": "南港區"
 },
 {
  "place_name": "向陽路",
  "town": "南港區"
 },
 {
  "place_name": "成功路",
  "town": "南港區"
 },
 {
  "place_name": "成福路",
  "town": "南港區"
 },
 {
  "place_name": "汐碇路",
  "town": "南港區"
 },
 {
  "place_name": "宜興街",
  "town": "南港區"
 },
 {
  "place_name": "忠孝東路",
  "town": "南港區"
 },
 {
  "place_name": "昆陽街",
  "town": "南港區"
 },
 {
  "place_name": "東明街",
  "town": "南港區"
 },
 {
  "place_name": "東南街",
  "town": "南港區"
 },
 {
  "place_name": "東新街",
  "town": "南港區"
 },
 {
  "place_name": "松河街",
  "town": "南港區"
 },
 {
  "place_name": "松隆路",
  "town": "南港區"
 },
 {
  "place_name": "林森路",
  "town": "南港區"
 },
 {
  "place_name": "信義快速道路",
  "town": "南港區"
 },
 {
  "place_name": "南深路",
  "town": "南港區"
 },
 {
  "place_name": "南港路",
  "town": "南港區"
 },
 {
  "place_name": "研究院路",
  "town": "南港區"
 },
 {
  "place_name": "重陽路",
  "town": "南港區"
 },
 {
  "place_name": "凌雲街",
  "town": "南港區"
 },
 {
  "place_name": "國興街",
  "town": "南港區"
 },
 {
  "place_name": "富康街",
  "town": "南港區"
 },
 {
  "place_name": "惠民街",
  "town": "南港區"
 },
 {
  "place_name": "園區街",
  "town": "南港區"
 },
 {
  "place_name": "新民街",
  "town": "南港區"
 },
 {
  "place_name": "新明路",
  "town": "南港區"
 },
 {
  "place_name": "經貿一路",
  "town": "南港區"
 },
 {
  "place_name": "經貿二路",
  "town": "南港區"
 },
 {
  "place_name": "經園街",
  "town": "南港區"
 },
 {
  "place_name": "福山街",
  "town": "南港區"
 },
 {
  "place_name": "福音大道",
  "town": "南港區"
 },
 {
  "place_name": "福爾摩莎高速公路",
  "town": "南港區"
 },
 {
  "place_name": "福德街",
  "town": "南港區"
 },
 {
  "place_name": "蔣渭水高速公路",
  "town": "南港區"
 },
 {
  "place_name": "橫科路",
  "town": "南港區"
 },
 {
  "place_name": "興中路",
  "town": "南港區"
 },
 {
  "place_name": "興東街",
  "town": "南港區"
 },
 {
  "place_name": "興南街",
  "town": "南港區"
 },
 {
  "place_name": "興華路",
  "town": "南港區"
 },
 {
  "place_name": "龍華街",
  "town": "南港區"
 },
 {
  "place_name": "環東大道",
  "town": "南港區"
 },
 {
  "place_name": "舊莊街",
  "town": "南港區"
 },
 {
  "place_name": "八連路",
  "town": "內湖區"
 },
 {
  "place_name": "大湖山莊街",
  "town": "內湖區"
 },
 {
  "place_name": "大湖街",
  "town": "內湖區"
 },
 {
  "place_name": "中山高汐五高架道路",
  "town": "內湖區"
 },
 {
  "place_name": "中山高速公路",
  "town": "內湖區"
 },
 {
  "place_name": "五分街",
  "town": "內湖區"
 },
 {
  "place_name": "內湖路",
  "town": "內湖區"
 },
 {
  "place_name": "天母快速道路",
  "town": "內湖區"
 },
 {
  "place_name": "文湖街",
  "town": "內湖區"
 },
 {
  "place_name": "文德路",
  "town": "內湖區"
 },
 {
  "place_name": "北安路",
  "town": "內湖區"
 },
 {
  "place_name": "民善街",
  "town": "內湖區"
 },
 {
  "place_name": "民權東路",
  "town": "內湖區"
 },
 {
  "place_name": "永保路",
  "town": "內湖區"
 },
 {
  "place_name": "向陽路",
  "town": "內湖區"
 },
 {
  "place_name": "安美街",
  "town": "內湖區"
 },
 {
  "place_name": "西園路",
  "town": "內湖區"
 },
 {
  "place_name": "忠二街",
  "town": "內湖區"
 },
 {
  "place_name": "忠三街",
  "town": "內湖區"
 },
 {
  "place_name": "東湖路",
  "town": "內湖區"
 },
 {
  "place_name": "金湖路",
  "town": "內湖區"
 },
 {
  "place_name": "金龍產業道路",
  "town": "內湖區"
 },
 {
  "place_name": "金龍路",
  "town": "內湖區"
 },
 {
  "place_name": "長青路",
  "town": "內湖區"
 },
 {
  "place_name": "南京東路",
  "town": "內湖區"
 },
 {
  "place_name": "星雲街",
  "town": "內湖區"
 },
 {
  "place_name": "洲子街",
  "town": "內湖區"
 },
 {
  "place_name": "基湖路",
  "town": "內湖區"
 },
 {
  "place_name": "康湖路",
  "town": "內湖區"
 },
 {
  "place_name": "昆明街",
  "town": "萬華區"
 },
 {
  "place_name": "東園街",
  "town": "萬華區"
 },
 {
  "place_name": "武成街",
  "town": "萬華區"
 },
 {
  "place_name": "武昌街",
  "town": "萬華區"
 },
 {
  "place_name": "長沙街",
  "town": "萬華區"
 },
 {
  "place_name": "長泰街",
  "town": "萬華區"
 },
 {
  "place_name": "長順街",
  "town": "萬華區"
 },
 {
  "place_name": "青年路",
  "town": "萬華區"
 },
 {
  "place_name": "南海路",
  "town": "萬華區"
 },
 {
  "place_name": "南寧路",
  "town": "萬華區"
 },
 {
  "place_name": "柳州街",
  "town": "萬華區"
 },
 {
  "place_name": "洛陽街",
  "town": "萬華區"
 },
 {
  "place_name": "峨嵋街",
  "town": "萬華區"
 },
 {
  "place_name": "桂林路",
  "town": "萬華區"
 },
 {
  "place_name": "國興路",
  "town": "萬華區"
 },
 {
  "place_name": "康定路",
  "town": "萬華區"
 },
 {
  "place_name": "梧州街",
  "town": "萬華區"
 },
 {
  "place_name": "開封街",
  "town": "萬華區"
 },
 {
  "place_name": "隆昌街",
  "town": "萬華區"
 },
 {
  "place_name": "雅江街",
  "town": "萬華區"
 },
 {
  "place_name": "愛國西路",
  "town": "萬華區"
 },
 {
  "place_name": "萬大路",
  "town": "萬華區"
 },
 {
  "place_name": "萬青街",
  "town": "萬華區"
 },
 {
  "place_name": "寧波西街",
  "town": "萬華區"
 },
 {
  "place_name": "漢口街",
  "town": "萬華區"
 },
 {
  "place_name": "漢中街",
  "town": "萬華區"
 },
 {
  "place_name": "艋舺大道",
  "town": "萬華區"
 },
 {
  "place_name": "廣州街",
  "town": "萬華區"
 },
 {
  "place_name": "德昌街",
  "town": "萬華區"
 },
 {
  "place_name": "興義街",
  "town": "萬華區"
 },
 {
  "place_name": "興寧街",
  "town": "萬華區"
 },
 {
  "place_name": "環河快速道路",
  "town": "萬華區"
 },
 {
  "place_name": "環河南路",
  "town": "萬華區"
 },
 {
  "place_name": "雙和街",
  "town": "萬華區"
 },
 {
  "place_name": "雙園街",
  "town": "萬華區"
 },
 {
  "place_name": "寶興街",
  "town": "萬華區"
 },
 {
  "place_name": "一壽街",
  "town": "文山區"
 },
 {
  "place_name": "三福街",
  "town": "文山區"
 },
 {
  "place_name": "下崙路",
  "town": "文山區"
 },
 {
  "place_name": "久康街",
  "town": "文山區"
 },
 {
  "place_name": "中崙路",
  "town": "文山區"
 },
 {
  "place_name": "公梘街",
  "town": "文山區"
 },
 {
  "place_name": "木柵路",
  "town": "文山區"
 },
 {
  "place_name": "木新路",
  "town": "文山區"
 },
 {
  "place_name": "水源快速道路",
  "town": "文山區"
 },
 {
  "place_name": "水源路",
  "town": "文山區"
 },
 {
  "place_name": "仙岩路",
  "town": "文山區"
 },
 {
  "place_name": "北二高台北聯絡道",
  "town": "文山區"
 },
 {
  "place_name": "永安街",
  "town": "文山區"
 },
 {
  "place_name": "汀州路",
  "town": "文山區"
 },
 {
  "place_name": "光輝路",
  "town": "文山區"
 },
 {
  "place_name": "老泉街",
  "town": "文山區"
 },
 {
  "place_name": "秀明路",
  "town": "文山區"
 },
 {
  "place_name": "育英街",
  "town": "文山區"
 },
 {
  "place_name": "車前路",
  "town": "文山區"
 },
 {
  "place_name": "辛亥路",
  "town": "文山區"
 },
 {
  "place_name": "和興路",
  "town": "文山區"
 },
 {
  "place_name": "忠順街",
  "town": "文山區"
 },
 {
  "place_name": "臥龍街",
  "town": "文山區"
 },
 {
  "place_name": "長興街",
  "town": "文山區"
 },
 {
  "place_name": "阿柔洋產業道路",
  "town": "文山區"
 },
 {
  "place_name": "保儀路",
  "town": "文山區"
 },
 {
  "place_name": "信義快速道路",
  "town": "文山區"
 },
 {
  "place_name": "恆光街",
  "town": "文山區"
 },
 {
  "place_name": "指南路",
  "town": "文山區"
 },
 {
  "place_name": "政大一街",
  "town": "文山區"
 },
 {
  "place_name": "政大二街",
  "town": "文山區"
 },
 {
  "place_name": "政大三街",
  "town": "文山區"
 },
 {
  "place_name": "春崎產業道路",
  "town": "文山區"
 },
 {
  "place_name": "軍功路",
  "town": "文山區"
 },
 {
  "place_name": "草地尾路",
  "town": "文山區"
 },
 {
  "place_name": "草湳產業道路",
  "town": "文山區"
 },
 {
  "place_name": "基隆路",
  "town": "文山區"
 },
 {
  "place_name": "基隆路高架道路",
  "town": "文山區"
 },
 {
  "place_name": "崇德街",
  "town": "文山區"
 },
 {
  "place_name": "深坑端",
  "town": "文山區"
 },
 {
  "place_name": "富山路",
  "town": "文山區"
 },
 {
  "place_name": "復興路",
  "town": "文山區"
 },
 {
  "place_name": "景中街",
  "town": "文山區"
 },
 {
  "place_name": "景仁街",
  "town": "文山區"
 },
 {
  "place_name": "景明街",
  "town": "文山區"
 },
 {
  "place_name": "景後街",
  "town": "文山區"
 },
 {
  "place_name": "景美街",
  "town": "文山區"
 },
 {
  "place_name": "景華街",
  "town": "文山區"
 },
 {
  "place_name": "景隆街",
  "town": "文山區"
 },
 {
  "place_name": "景福街",
  "town": "文山區"
 },
 {
  "place_name": "景興路",
  "town": "文山區"
 },
 {
  "place_name": "景豐街",
  "town": "文山區"
 },
 {
  "place_name": "開元街",
  "town": "文山區"
 },
 {
  "place_name": "集英街",
  "town": "文山區"
 },
 {
  "place_name": "新光路",
  "town": "文山區"
 },
 {
  "place_name": "溪口街",
  "town": "文山區"
 },
 {
  "place_name": "溪州街",
  "town": "文山區"
 },
 {
  "place_name": "萬安街",
  "town": "文山區"
 },
 {
  "place_name": "萬利街",
  "town": "文山區"
 },
 {
  "place_name": "萬和街",
  "town": "文山區"
 },
 {
  "place_name": "萬芳路",
  "town": "文山區"
 },
 {
  "place_name": "萬美街",
  "town": "文山區"
 },
 {
  "place_name": "萬盛街",
  "town": "文山區"
 },
 {
  "place_name": "萬隆街",
  "town": "文山區"
 },
 {
  "place_name": "博愛路",
  "town": "中正區"
 },
 {
  "place_name": "惠安街",
  "town": "中正區"
 },
 {
  "place_name": "湖口街",
  "town": "中正區"
 },
 {
  "place_name": "詔安街",
  "town": "中正區"
 },
 {
  "place_name": "貴陽街",
  "town": "中正區"
 },
 {
  "place_name": "開封街",
  "town": "中正區"
 },
 {
  "place_name": "廈門街",
  "town": "中正區"
 },
 {
  "place_name": "愛國西路",
  "town": "中正區"
 },
 {
  "place_name": "愛國東路",
  "town": "中正區"
 },
 {
  "place_name": "新生北路",
  "town": "中正區"
 },
 {
  "place_name": "衡陽路",
  "town": "中正區"
 },
 {
  "place_name": "館前路",
  "town": "中正區"
 },
 {
  "place_name": "濟南路",
  "town": "中正區"
 },
 {
  "place_name": "環河快速道路",
  "town": "中正區"
 },
 {
  "place_name": "臨沂街",
  "town": "中正區"
 },
 {
  "place_name": "襄陽路",
  "town": "中正區"
 },
 {
  "place_name": "鎮江街",
  "town": "中正區"
 },
 {
  "place_name": "懷寧街",
  "town": "中正區"
 },
 {
  "place_name": "羅斯福路",
  "town": "中正區"
 },
 {
  "place_name": "寶慶路",
  "town": "中正區"
 },
 {
  "place_name": "大龍街",
  "town": "大同區"
 },
 {
  "place_name": "中山高汐五高架道路",
  "town": "大同區"
 },
 {
  "place_name": "中山高速公路",
  "town": "大同區"
 },
 {
  "place_name": "五原路",
  "town": "大同區"
 },
 {
  "place_name": "天水路",
  "town": "大同區"
 },
 {
  "place_name": "太原路",
  "town": "大同區"
 },
 {
  "place_name": "市民大道",
  "town": "大同區"
 },
 {
  "place_name": "市民大道高架道路",
  "town": "大同區"
 },
 {
  "place_name": "平陽街",
  "town": "大同區"
 },
 {
  "place_name": "民生西路",
  "town": "大同區"
 },
 {
  "place_name": "民族西路",
  "town": "大同區"
 },
 {
  "place_name": "民樂街",
  "town": "大同區"
 },
 {
  "place_name": "民權西路",
  "town": "大同區"
 },
 {
  "place_name": "永昌街",
  "town": "大同區"
 },
 {
  "place_name": "玉門街",
  "town": "大同區"
 },
 {
  "place_name": "甘州街",
  "town": "大同區"
 },
 {
  "place_name": "甘谷街",
  "town": "大同區"
 },
 {
  "place_name": "伊寧街",
  "town": "大同區"
 },
 {
  "place_name": "安西街",
  "town": "大同區"
 },
 {
  "place_name": "西寧北路",
  "town": "大同區"
 },
 {
  "place_name": "赤峰街",
  "town": "大同區"
 },
 {
  "place_name": "延平北路",
  "town": "大同區"
 },
 {
  "place_name": "忠孝西路",
  "town": "大同區"
 },
 {
  "place_name": "承德路",
  "town": "大同區"
 },
 {
  "place_name": "昆明街",
  "town": "大同區"
 },
 {
  "place_name": "昌吉街",
  "town": "大同區"
 },
 {
  "place_name": "長安西路",
  "town": "大同區"
 },
 {
  "place_name": "保安街",
  "town": "大同區"
 },
 {
  "place_name": "南京西路",
  "town": "大同區"
 },
 {
  "place_name": "哈密街",
  "town": "大同區"
 },
 {
  "place_name": "迪化街",
  "town": "大同區"
 },
 {
  "place_name": "重慶北路",
  "town": "大同區"
 },
 {
  "place_name": "庫倫街",
  "town": "大同區"
 },
 {
  "place_name": "酒泉街",
  "town": "大同區"
 },
 {
  "place_name": "涼州街",
  "town": "大同區"
 },
 {
  "place_name": "通河西街",
  "town": "大同區"
 },
 {
  "place_name": "敦煌路",
  "town": "大同區"
 },
 {
  "place_name": "景化街",
  "town": "大同區"
 },
 {
  "place_name": "華亭街",
  "town": "大同區"
 },
 {
  "place_name": "華陰街",
  "town": "大同區"
 },
 {
  "place_name": "貴德街",
  "town": "大同區"
 },
 {
  "place_name": "塔城街",
  "town": "大同區"
 },
 {
  "place_name": "萬全街",
  "town": "大同區"
 },
 {
  "place_name": "寧夏路",
  "town": "大同區"
 },
 {
  "place_name": "撫順街",
  "town": "大同區"
 },
 {
  "place_name": "鄭州街",
  "town": "大同區"
 },
 {
  "place_name": "鄭州路",
  "town": "大同區"
 },
 {
  "place_name": "興城街",
  "town": "大同區"
 },
 {
  "place_name": "錦西街",
  "town": "大同區"
 },
 {
  "place_name": "環河北路",
  "town": "大同區"
 },
 {
  "place_name": "環河快速道路",
  "town": "大同區"
 },
 {
  "place_name": "環河南路",
  "town": "大同區"
 },
 {
  "place_name": "雙連街",
  "town": "大同區"
 },
 {
  "place_name": "蘭州街",
  "town": "大同區"
 },
 {
  "place_name": "三水街",
  "town": "萬華區"
 },
 {
  "place_name": "大里街",
  "town": "萬華區"
 },
 {
  "place_name": "大埔街",
  "town": "萬華區"
 },
 {
  "place_name": "大理街",
  "town": "萬華區"
 },
 {
  "place_name": "中華路",
  "town": "萬華區"
 },
 {
  "place_name": "內江街",
  "town": "萬華區"
 },
 {
  "place_name": "水源路",
  "town": "萬華區"
 },
 {
  "place_name": "民和街",
  "town": "萬華區"
 },
 {
  "place_name": "永福街",
  "town": "萬華區"
 },
 {
  "place_name": "汀州路",
  "town": "萬華區"
 },
 {
  "place_name": "成都路",
  "town": "萬華區"
 },
 {
  "place_name": "汕頭街",
  "town": "萬華區"
 },
 {
  "place_name": "西昌街",
  "town": "萬華區"
 },
 {
  "place_name": "西園路",
  "town": "萬華區"
 },
 {
  "place_name": "西寧北路",
  "town": "萬華區"
 },
 {
  "place_name": "西寧南路",
  "town": "萬華區"
 },
 {
  "place_name": "西藏路",
  "town": "萬華區"
 },
 {
  "place_name": "和平西路",
  "town": "萬華區"
 },
 {
  "place_name": "忠孝西路",
  "town": "萬華區"
 },
 {
  "place_name": "忠孝西路高架道路",
  "town": "萬華區"
 },
 {
  "place_name": "莒光路",
  "town": "萬華區"
 },
 {
  "place_name": "富民街",
  "town": "萬華區"
 },
 {
  "place_name": "富民路",
  "town": "萬華區"
 },
 {
  "place_name": "華西街",
  "town": "萬華區"
 },
 {
  "place_name": "貴陽街",
  "town": "萬華區"
 },
 {
  "place_name": "新生北路",
  "town": "中山區"
 },
 {
  "place_name": "新生南路",
  "town": "中山區"
 },
 {
  "place_name": "新生高架道路",
  "town": "中山區"
 },
 {
  "place_name": "瑞光路",
  "town": "中山區"
 },
 {
  "place_name": "三元街",
  "town": "中正區"
 },
 {
  "place_name": "大埔街",
  "town": "中正區"
 },
 {
  "place_name": "中十九路",
  "town": "中正區"
 },
 {
  "place_name": "中山北路",
  "town": "中正區"
 },
 {
  "place_name": "中山南路",
  "town": "中正區"
 },
 {
  "place_name": "中華路",
  "town": "中正區"
 },
 {
  "place_name": "丹陽街",
  "town": "中正區"
 },
 {
  "place_name": "仁愛路",
  "town": "中正區"
 },
 {
  "place_name": "介壽路",
  "town": "中正區"
 },
 {
  "place_name": "公園路",
  "town": "中正區"
 },
 {
  "place_name": "天津街",
  "town": "中正區"
 },
 {
  "place_name": "水源快速道路",
  "town": "中正區"
 },
 {
  "place_name": "水源路",
  "town": "中正區"
 },
 {
  "place_name": "北平西路",
  "town": "中正區"
 },
 {
  "place_name": "北平東路",
  "town": "中正區"
 },
 {
  "place_name": "北平路",
  "town": "中正區"
 },
 {
  "place_name": "市民大道",
  "town": "中正區"
 },
 {
  "place_name": "市民大道高架道路",
  "town": "中正區"
 },
 {
  "place_name": "永春街",
  "town": "中正區"
 },
 {
  "place_name": "永綏街",
  "town": "中正區"
 },
 {
  "place_name": "汀州街",
  "town": "中正區"
 },
 {
  "place_name": "汀州路",
  "town": "中正區"
 },
 {
  "place_name": "同安街",
  "town": "中正區"
 },
 {
  "place_name": "成都路",
  "town": "中正區"
 },
 {
  "place_name": "西寧南路",
  "town": "中正區"
 },
 {
  "place_name": "西藏路",
  "town": "中正區"
 },
 {
  "place_name": "沅陵街",
  "town": "中正區"
 },
 {
  "place_name": "秀山街",
  "town": "中正區"
 },
 {
  "place_name": "辛亥路",
  "town": "中正區"
 },
 {
  "place_name": "酉陽街",
  "town": "中正區"
 },
 {
  "place_name": "和平西路",
  "town": "中正區"
 },
 {
  "place_name": "和平東路",
  "town": "中正區"
 },
 {
  "place_name": "延平北路",
  "town": "中正區"
 },
 {
  "place_name": "延平南路",
  "town": "中正區"
 },
 {
  "place_name": "忠孝西路",
  "town": "中正區"
 },
 {
  "place_name": "忠孝西路高架道路",
  "town": "中正區"
 },
 {
  "place_name": "忠孝東路",
  "town": "中正區"
 },
 {
  "place_name": "承德路",
  "town": "中正區"
 },
 {
  "place_name": "杭州北路",
  "town": "中正區"
 },
 {
  "place_name": "杭州南路",
  "town": "中正區"
 },
 {
  "place_name": "松江路",
  "town": "中正區"
 },
 {
  "place_name": "林森北路",
  "town": "中正區"
 },
 {
  "place_name": "林森南路",
  "town": "中正區"
 },
 {
  "place_name": "武昌街",
  "town": "中正區"
 },
 {
  "place_name": "金山北路",
  "town": "中正區"
 },
 {
  "place_name": "金山南路",
  "town": "中正區"
 },
 {
  "place_name": "金門街",
  "town": "中正區"
 },
 {
  "place_name": "金華街",
  "town": "中正區"
 },
 {
  "place_name": "長安東路",
  "town": "中正區"
 },
 {
  "place_name": "長沙街",
  "town": "中正區"
 },
 {
  "place_name": "青島西路",
  "town": "中正區"
 },
 {
  "place_name": "青島東路",
  "town": "中正區"
 },
 {
  "place_name": "信陽街",
  "town": "中正區"
 },
 {
  "place_name": "信義路",
  "town": "中正區"
 },
 {
  "place_name": "南昌街",
  "town": "中正區"
 },
 {
  "place_name": "南昌路",
  "town": "中正區"
 },
 {
  "place_name": "南海路",
  "town": "中正區"
 },
 {
  "place_name": "南陽街",
  "town": "中正區"
 },
 {
  "place_name": "南寧路",
  "town": "中正區"
 },
 {
  "place_name": "思源街",
  "town": "中正區"
 },
 {
  "place_name": "泉州街",
  "town": "中正區"
 },
 {
  "place_name": "洛陽街",
  "town": "中正區"
 },
 {
  "place_name": "牯嶺街",
  "town": "中正區"
 },
 {
  "place_name": "重慶北路",
  "town": "中正區"
 },
 {
  "place_name": "重慶南路",
  "town": "中正區"
 },
 {
  "place_name": "峨嵋街",
  "town": "中正區"
 },
 {
  "place_name": "師大路",
  "town": "中正區"
 },
 {
  "place_name": "徐州路",
  "town": "中正區"
 },
 {
  "place_name": "晉江街",
  "town": "中正區"
 },
 {
  "place_name": "桂林路",
  "town": "中正區"
 },
 {
  "place_name": "桃源街",
  "town": "中正區"
 },
 {
  "place_name": "泰山街",
  "town": "中正區"
 },
 {
  "place_name": "泰安街",
  "town": "中正區"
 },
 {
  "place_name": "浦城街",
  "town": "中正區"
 },
 {
  "place_name": "國興路",
  "town": "中正區"
 },
 {
  "place_name": "基隆路",
  "town": "中正區"
 },
 {
  "place_name": "常德街",
  "town": "中正區"
 },
 {
  "place_name": "紹安街",
  "town": "中正區"
 },
 {
  "place_name": "紹興北街",
  "town": "中正區"
 },
 {
  "place_name": "紹興南街",
  "town": "中正區"
 },
 {
  "place_name": "莒光路",
  "town": "中正區"
 },
 {
  "place_name": "許昌街",
  "town": "中正區"
 },
 {
  "place_name": "連雲街",
  "town": "中正區"
 },
 {
  "place_name": "凱達格蘭大道",
  "town": "中正區"
 },
 {
  "place_name": "新生南路",
  "town": "中正區"
 },
 {
  "place_name": "新生高架道路",
  "town": "中正區"
 },
 {
  "place_name": "寧波西街",
  "town": "中正區"
 },
 {
  "place_name": "寧波東街",
  "town": "中正區"
 },
 {
  "place_name": "漢口街",
  "town": "中正區"
 },
 {
  "place_name": "漢中街",
  "town": "中正區"
 },
 {
  "place_name": "福州街",
  "town": "中正區"
 },
 {
  "place_name": "艋舺大道",
  "town": "中正區"
 },
 {
  "place_name": "銅山街",
  "town": "中正區"
 },
 {
  "place_name": "齊東街",
  "town": "中正區"
 },
 {
  "place_name": "廣州街",
  "town": "中正區"
 },
 {
  "place_name": "潮州街",
  "town": "中正區"
 },
 {
  "place_name": "連雲街",
  "town": "大安區"
 },
 {
  "place_name": "富陽街",
  "town": "大安區"
 },
 {
  "place_name": "復興南路",
  "town": "大安區"
 },
 {
  "place_name": "敦化南路",
  "town": "大安區"
 },
 {
  "place_name": "敦南街",
  "town": "大安區"
 },
 {
  "place_name": "雲和街",
  "town": "大安區"
 },
 {
  "place_name": "愛國東路",
  "town": "大安區"
 },
 {
  "place_name": "新生北路",
  "town": "大安區"
 },
 {
  "place_name": "新生南路",
  "town": "大安區"
 },
 {
  "place_name": "溫州街",
  "town": "大安區"
 },
 {
  "place_name": "瑞安街",
  "town": "大安區"
 },
 {
  "place_name": "嘉興街",
  "town": "大安區"
 },
 {
  "place_name": "福爾摩莎高速公路台北聯絡道",
  "town": "大安區"
 },
 {
  "place_name": "樂利街",
  "town": "大安區"
 },
 {
  "place_name": "樂利路",
  "town": "大安區"
 },
 {
  "place_name": "樂業街",
  "town": "大安區"
 },
 {
  "place_name": "潮州街",
  "town": "大安區"
 },
 {
  "place_name": "龍泉街",
  "town": "大安區"
 },
 {
  "place_name": "濟南路",
  "town": "大安區"
 },
 {
  "place_name": "臨江街",
  "town": "大安區"
 },
 {
  "place_name": "羅斯福路",
  "town": "大安區"
 },
 {
  "place_name": "麗水街",
  "town": "大安區"
 },
 {
  "place_name": "一江街",
  "town": "中山區"
 },
 {
  "place_name": "八德路",
  "town": "中山區"
 },
 {
  "place_name": "大直街",
  "town": "中山區"
 },
 {
  "place_name": "中山北路",
  "town": "中山區"
 },
 {
  "place_name": "中山高汐五高架道路",
  "town": "中山區"
 },
 {
  "place_name": "中山高速公路",
  "town": "中山區"
 },
 {
  "place_name": "中原街",
  "town": "中山區"
 },
 {
  "place_name": "五常街",
  "town": "中山區"
 },
 {
  "place_name": "內湖路",
  "town": "中山區"
 },
 {
  "place_name": "天母快速道路",
  "town": "中山區"
 },
 {
  "place_name": "天津街",
  "town": "中山區"
 },
 {
  "place_name": "天祥路",
  "town": "中山區"
 },
 {
  "place_name": "文湖街",
  "town": "中山區"
 },
 {
  "place_name": "北安街",
  "town": "中山區"
 },
 {
  "place_name": "北安路",
  "town": "中山區"
 },
 {
  "place_name": "四平街",
  "town": "中山區"
 },
 {
  "place_name": "市民大道",
  "town": "中山區"
 },
 {
  "place_name": "市民大道高架道路",
  "town": "中山區"
 },
 {
  "place_name": "平陽街",
  "town": "中山區"
 },
 {
  "place_name": "民生西路",
  "town": "中山區"
 },
 {
  "place_name": "民生東路",
  "town": "中山區"
 },
 {
  "place_name": "民族西路",
  "town": "中山區"
 },
 {
  "place_name": "民族東路",
  "town": "中山區"
 },
 {
  "place_name": "民權西路",
  "town": "中山區"
 },
 {
  "place_name": "民權東路",
  "town": "中山區"
 },
 {
  "place_name": "玉門街",
  "town": "中山區"
 },
 {
  "place_name": "伊通街",
  "town": "中山區"
 },
 {
  "place_name": "合江街",
  "town": "中山區"
 },
 {
  "place_name": "吉林路",
  "town": "中山區"
 },
 {
  "place_name": "安東街",
  "town": "中山區"
 },
 {
  "place_name": "朱崙街",
  "town": "中山區"
 },
 {
  "place_name": "明水路",
  "town": "中山區"
 },
 {
  "place_name": "松江路",
  "town": "中山區"
 },
 {
  "place_name": "林森北路",
  "town": "中山區"
 },
 {
  "place_name": "金山北路",
  "town": "中山區"
 },
 {
  "place_name": "長安西路",
  "town": "中山區"
 },
 {
  "place_name": "長安東路",
  "town": "中山區"
 },
 {
  "place_name": "長春路",
  "town": "中山區"
 },
 {
  "place_name": "南京西路",
  "town": "中山區"
 },
 {
  "place_name": "南京東路",
  "town": "中山區"
 },
 {
  "place_name": "建國北路",
  "town": "中山區"
 },
 {
  "place_name": "建國南路",
  "town": "中山區"
 },
 {
  "place_name": "建國高架道路",
  "town": "中山區"
 },
 {
  "place_name": "庫倫街",
  "town": "中山區"
 },
 {
  "place_name": "酒泉街",
  "town": "中山區"
 },
 {
  "place_name": "基河路",
  "town": "中山區"
 },
 {
  "place_name": "基湖路",
  "town": "中山區"
 },
 {
  "place_name": "通化街",
  "town": "中山區"
 },
 {
  "place_name": "通北街",
  "town": "中山區"
 },
 {
  "place_name": "堤頂大道",
  "town": "中山區"
 },
 {
  "place_name": "復興北路",
  "town": "中山區"
 },
 {
  "place_name": "復興南路",
  "town": "中山區"
 },
 {
  "place_name": "敦化北路",
  "town": "中山區"
 },
 {
  "place_name": "植福路",
  "town": "中山區"
 },
 {
  "place_name": "渭水路",
  "town": "中山區"
 },
 {
  "place_name": "港墘路",
  "town": "中山區"
 },
 {
  "place_name": "華陰街",
  "town": "中山區"
 },
 {
  "place_name": "敬業一路",
  "town": "中山區"
 },
 {
  "place_name": "敬業二路",
  "town": "中山區"
 },
 {
  "place_name": "敬業三路",
  "town": "中山區"
 },
 {
  "place_name": "敬業四路",
  "town": "中山區"
 },
 {
  "place_name": "農安街",
  "town": "中山區"
 },
 {
  "place_name": "劍南路",
  "town": "中山區"
 },
 {
  "place_name": "德惠街",
  "town": "中山區"
 },
 {
  "place_name": "慶城街",
  "town": "中山區"
 },
 {
  "place_name": "撫順街",
  "town": "中山區"
 },
 {
  "place_name": "樂群一路",
  "town": "中山區"
 },
 {
  "place_name": "樂群二路",
  "town": "中山區"
 },
 {
  "place_name": "樂群三路",
  "town": "中山區"
 },
 {
  "place_name": "興安街",
  "town": "中山區"
 },
 {
  "place_name": "遼寧街",
  "town": "中山區"
 },
 {
  "place_name": "錦州街",
  "town": "中山區"
 },
 {
  "place_name": "錦西街",
  "town": "中山區"
 },
 {
  "place_name": "龍江路",
  "town": "中山區"
 },
 {
  "place_name": "濱江街",
  "town": "中山區"
 },
 {
  "place_name": "舊宗路",
  "town": "中山區"
 },
 {
  "place_name": "雙城街",
  "town": "中山區"
 },
 {
  "place_name": "八德路",
  "town": "中正區"
 },
 {
  "place_name": "臨沂街",
  "town": "大安區"
 },
 {
  "place_name": "林口街",
  "town": "信義區"
 },
 {
  "place_name": "臥龍街",
  "town": "信義區"
 },
 {
  "place_name": "虎林街",
  "town": "信義區"
 },
 {
  "place_name": "青雲街",
  "town": "信義區"
 },
 {
  "place_name": "青雲路",
  "town": "信義區"
 },
 {
  "place_name": "信安街",
  "town": "信義區"
 },
 {
  "place_name": "信義快速道路",
  "town": "信義區"
 },
 {
  "place_name": "信義路",
  "town": "信義區"
 },
 {
  "place_name": "軍功路",
  "town": "信義區"
 },
 {
  "place_name": "基隆路",
  "town": "信義區"
 },
 {
  "place_name": "崇德街",
  "town": "信義區"
 },
 {
  "place_name": "祥雲街",
  "town": "信義區"
 },
 {
  "place_name": "莊敬路",
  "town": "信義區"
 },
 {
  "place_name": "通化街",
  "town": "信義區"
 },
 {
  "place_name": "富陽街",
  "town": "信義區"
 },
 {
  "place_name": "景雲街",
  "town": "信義區"
 },
 {
  "place_name": "紫雲街",
  "town": "信義區"
 },
 {
  "place_name": "興雅路",
  "town": "信義區"
 },
 {
  "place_name": "環東大道",
  "town": "信義區"
 },
 {
  "place_name": "臨江街",
  "town": "信義區"
 },
 {
  "place_name": "八德路",
  "town": "大安區"
 },
 {
  "place_name": "大安路",
  "town": "大安區"
 },
 {
  "place_name": "仁愛路",
  "town": "大安區"
 },
 {
  "place_name": "文昌街",
  "town": "大安區"
 },
 {
  "place_name": "北二高台北聯絡道",
  "town": "大安區"
 },
 {
  "place_name": "四維路",
  "town": "大安區"
 },
 {
  "place_name": "市民大道",
  "town": "大安區"
 },
 {
  "place_name": "市民大道高架道路",
  "town": "大安區"
 },
 {
  "place_name": "永康街",
  "town": "大安區"
 },
 {
  "place_name": "光復南路",
  "town": "大安區"
 },
 {
  "place_name": "同安街",
  "town": "大安區"
 },
 {
  "place_name": "安和路",
  "town": "大安區"
 },
 {
  "place_name": "安居街",
  "town": "大安區"
 },
 {
  "place_name": "安東街",
  "town": "大安區"
 },
 {
  "place_name": "舟山路",
  "town": "大安區"
 },
 {
  "place_name": "吳興街",
  "town": "大安區"
 },
 {
  "place_name": "辛亥路",
  "town": "大安區"
 },
 {
  "place_name": "和平東路",
  "town": "大安區"
 },
 {
  "place_name": "延吉街",
  "town": "大安區"
 },
 {
  "place_name": "忠孝東路",
  "town": "大安區"
 },
 {
  "place_name": "杭州南路",
  "town": "大安區"
 },
 {
  "place_name": "東豐街",
  "town": "大安區"
 },
 {
  "place_name": "臥龍街",
  "town": "大安區"
 },
 {
  "place_name": "芳蘭路",
  "town": "大安區"
 },
 {
  "place_name": "金山南路",
  "town": "大安區"
 },
 {
  "place_name": "金山街",
  "town": "大安區"
 },
 {
  "place_name": "金門街",
  "town": "大安區"
 },
 {
  "place_name": "金華街",
  "town": "大安區"
 },
 {
  "place_name": "長興街",
  "town": "大安區"
 },
 {
  "place_name": "青田街",
  "town": "大安區"
 },
 {
  "place_name": "信安街",
  "town": "大安區"
 },
 {
  "place_name": "信義路",
  "town": "大安區"
 },
 {
  "place_name": "南昌路",
  "town": "大安區"
 },
 {
  "place_name": "建國南路",
  "town": "大安區"
 },
 {
  "place_name": "建國高架道路",
  "town": "大安區"
 },
 {
  "place_name": "師大路",
  "town": "大安區"
 },
 {
  "place_name": "泰順街",
  "town": "大安區"
 },
 {
  "place_name": "浦城街",
  "town": "大安區"
 },
 {
  "place_name": "國3甲辛亥路端",
  "town": "大安區"
 },
 {
  "place_name": "基隆路",
  "town": "大安區"
 },
 {
  "place_name": "基隆路高架道路",
  "town": "大安區"
 },
 {
  "place_name": "通化街",
  "town": "大安區"
 },
 {
  "place_name": "通安街",
  "town": "大安區"
 },
 {
  "place_name": "光復北路",
  "town": "松山區"
 },
 {
  "place_name": "八德路",
  "town": "松山區"
 },
 {
  "place_name": "三民路",
  "town": "松山區"
 },
 {
  "place_name": "中山高汐五高架道路",
  "town": "松山區"
 },
 {
  "place_name": "中山高速公路",
  "town": "松山區"
 },
 {
  "place_name": "五常街",
  "town": "松山區"
 },
 {
  "place_name": "北寧路",
  "town": "松山區"
 },
 {
  "place_name": "市民大道",
  "town": "松山區"
 },
 {
  "place_name": "市民大道高架道路",
  "town": "松山區"
 },
 {
  "place_name": "民生東路",
  "town": "松山區"
 },
 {
  "place_name": "民族東路",
  "town": "松山區"
 },
 {
  "place_name": "民權東路",
  "town": "松山區"
 },
 {
  "place_name": "光復南路",
  "town": "松山區"
 },
 {
  "place_name": "吉祥路",
  "town": "松山區"
 },
 {
  "place_name": "行善路",
  "town": "松山區"
 },
 {
  "place_name": "延吉街",
  "town": "松山區"
 },
 {
  "place_name": "延壽街",
  "town": "松山區"
 },
 {
  "place_name": "東寧路",
  "town": "松山區"
 },
 {
  "place_name": "東興路",
  "town": "松山區"
 },
 {
  "place_name": "松河街",
  "town": "松山區"
 },
 {
  "place_name": "虎林街",
  "town": "松山區"
 },
 {
  "place_name": "長安東路",
  "town": "松山區"
 },
 {
  "place_name": "長春路",
  "town": "松山區"
 },
 {
  "place_name": "南京東路",
  "town": "松山區"
 },
 {
  "place_name": "健康路",
  "town": "松山區"
 },
 {
  "place_name": "基隆路",
  "town": "松山區"
 },
 {
  "place_name": "富錦街",
  "town": "松山區"
 },
 {
  "place_name": "復興北路",
  "town": "松山區"
 },
 {
  "place_name": "復興南路",
  "town": "松山區"
 },
 {
  "place_name": "敦化北路",
  "town": "松山區"
 },
 {
  "place_name": "敦化南路",
  "town": "松山區"
 },
 {
  "place_name": "塔悠路",
  "town": "松山區"
 },
 {
  "place_name": "新中街",
  "town": "松山區"
 },
 {
  "place_name": "新東街",
  "town": "松山區"
 },
 {
  "place_name": "寧安街",
  "town": "松山區"
 },
 {
  "place_name": "慶城街",
  "town": "松山區"
 },
 {
  "place_name": "撫遠街",
  "town": "松山區"
 },
 {
  "place_name": "興安街",
  "town": "松山區"
 },
 {
  "place_name": "濱江街",
  "town": "松山區"
 },
 {
  "place_name": "寶清街",
  "town": "松山區"
 },
 {
  "place_name": "饒河街",
  "town": "松山區"
 },
 {
  "place_name": "八德路",
  "town": "信義區"
 },
 {
  "place_name": "大道路",
  "town": "信義區"
 },
 {
  "place_name": "中坡北路",
  "town": "信義區"
 },
 {
  "place_name": "中坡南路",
  "town": "信義區"
 },
 {
  "place_name": "仁愛路",
  "town": "信義區"
 },
 {
  "place_name": "文昌街",
  "town": "信義區"
 },
 {
  "place_name": "北二高台北聯絡道",
  "town": "信義區"
 },
 {
  "place_name": "市民大道",
  "town": "信義區"
 },
 {
  "place_name": "市民大道高架道路",
  "town": "信義區"
 },
 {
  "place_name": "市府路",
  "town": "信義區"
 },
 {
  "place_name": "平東路",
  "town": "信義區"
 },
 {
  "place_name": "永吉路",
  "town": "信義區"
 },
 {
  "place_name": "光復南路",
  "town": "信義區"
 },
 {
  "place_name": "吉林路",
  "town": "信義區"
 },
 {
  "place_name": "吳興街",
  "town": "信義區"
 },
 {
  "place_name": "和平東路",
  "town": "信義區"
 },
 {
  "place_name": "延吉街",
  "town": "信義區"
 },
 {
  "place_name": "忠孝東路",
  "town": "信義區"
 },
 {
  "place_name": "東寧路",
  "town": "信義區"
 },
 {
  "place_name": "東興路",
  "town": "信義區"
 },
 {
  "place_name": "松山路",
  "town": "信義區"
 },
 {
  "place_name": "松仁路",
  "town": "信義區"
 },
 {
  "place_name": "松平路",
  "town": "信義區"
 },
 {
  "place_name": "松信路",
  "town": "信義區"
 },
 {
  "place_name": "松勇路",
  "town": "信義區"
 },
 {
  "place_name": "松高路",
  "town": "信義區"
 },
 {
  "place_name": "松智路",
  "town": "信義區"
 },
 {
  "place_name": "松隆路",
  "town": "信義區"
 },
 {
  "place_name": "松勤街",
  "town": "信義區"
 },
 {
  "place_name": "松廉路",
  "town": "信義區"
 },
 {
  "place_name": "松壽路",
  "town": "信義區"
 },
 {
  "place_name": "松德路",
  "town": "信義區"
 },
 {
  "place_name": "逸仙路",
  "town": "信義區"
 },
 {
  "place_name": "瑞雲街",
  "town": "信義區"
 },
 {
  "place_name": "嘉新街",
  "town": "信義區"
 },
 {
  "place_name": "嘉興街",
  "town": "信義區"
 },
 {
  "place_name": "福德街",
  "town": "信義區"
 },
 {
  "place_name": "國道1號",
  "town": "松山區"
 },
 {
  "place_name": "社子二十二街",
  "town": "士林區"
 },
 {
  "place_name": "雨聲街",
  "town": "士林區"
 },
 {
  "place_name": "釋迦大道",
  "town": "士林區"
 },
 {
  "place_name": "榮華三路",
  "town": "北投區"
 },
 {
  "place_name": "忠孝路",
  "town": "士林區"
 },
 {
  "place_name": "國道3號",
  "town": "大安區"
 },
 {
  "place_name": "國道1號",
  "town": "士林區"
 },
 {
  "place_name": "新生北路",
  "town": "士林區"
 },
 {
  "place_name": "環河北路",
  "town": "士林區"
 },
 {
  "place_name": "國道1號",
  "town": "大同區"
 },
 {
  "place_name": "府直街",
  "town": "中正區"
 },
 {
  "place_name": "府前街",
  "town": "中正區"
 },
 {
  "place_name": "府後街",
  "town": "中正區"
 },
 {
  "place_name": "國興街",
  "town": "大同區"
 },
 {
  "place_name": "大某街",
  "town": "大同區"
 },
 {
  "place_name": "李厝街",
  "town": "大同區"
 },
 {
  "place_name": "四十四坎街",
  "town": "大同區"
 },
 {
  "place_name": "布埔街",
  "town": "萬華區"
 },
 {
  "place_name": "廈新街",
  "town": "萬華區"
 },
 {
  "place_name": "頂新街",
  "town": "萬華區"
 },
 {
  "place_name": "新店街",
  "town": "萬華區"
 },
 {
  "place_name": "新起街",
  "town": "萬華區"
 },
 {
  "place_name": "景尾街",
  "town": "文山區"
 },
 {
  "place_name": "景尾街　",
  "town": "文山區"
 },
 {
  "place_name": "公館街",
  "town": "文山區"
 },
 {
  "place_name": "國道1號",
  "town": "中山區"
 },
 {
  "place_name": "峨眉街",
  "town": "中正區"
 },
 {
  "place_name": "內湖交流道",
  "town": "內湖區"
 },
 {
  "place_name": "忠一街",
  "town": "內湖區"
 },
 {
  "place_name": "國道1號",
  "town": "內湖區"
 },
 {
  "place_name": "歸綏街",
  "town": "大同區"
 }
]